{
    "links": {
        "self": "http://www.neowsapp.com/rest/v1/neo/3647276?api_key=iIulBulltgU6a56xZRHN4H3l9WmuAYTsLGpBGhQ2"
    },
    "id": "3647276",
    "neo_reference_id": "3647276",
    "name": "(2013 RO21)",
    "designation": "2013 RO21",
    "nasa_jpl_url": "http://ssd.jpl.nasa.gov/sbdb.cgi?sstr=3647276",
    "absolute_magnitude_h": 25.1,
    "estimated_diameter": {
        "kilometers": {
            "estimated_diameter_min": 0.0253837029,
            "estimated_diameter_max": 0.0567596853
        },
        "meters": {
            "estimated_diameter_min": 25.3837029364,
            "estimated_diameter_max": 56.7596852866
        },
        "miles": {
            "estimated_diameter_min": 0.0157726969,
            "estimated_diameter_max": 0.0352688224
        },
        "feet": {
            "estimated_diameter_min": 83.279867942,
            "estimated_diameter_max": 186.2194458756
        }
    },
    "is_potentially_hazardous_asteroid": false,
    "close_approach_data": [
        {
            "close_approach_date": "2013-09-06",
            "close_approach_date_full": "2013-Sep-06 14:48",
            "epoch_date_close_approach": 1378478880000,
            "relative_velocity": {
                "kilometers_per_second": "7.0908873243",
                "kilometers_per_hour": "25527.1943673128",
                "miles_per_hour": "15861.6058556228"
            },
            "miss_distance": {
                "astronomical": "0.0661112515",
                "lunar": "25.7172768335",
                "kilometers": "9890102.407434305",
                "miles": "6145424.668851209"
            },
            "orbiting_body": "Earth"
        }
    ],
    "orbital_data": {
        "orbit_id": "9",
        "orbit_determination_date": "2017-04-06 08:44:48",
        "first_observation_date": "2013-09-04",
        "last_observation_date": "2013-10-29",
        "data_arc_in_days": 55,
        "observations_used": 23,
        "orbit_uncertainty": "8",
        "minimum_orbit_intersection": ".0488907",
        "jupiter_tisserand_invariant": "3.433",
        "epoch_osculation": "2456565.5",
        "eccentricity": ".5307473427537039",
        "semi_major_axis": "2.24176032886789",
        "inclination": "1.691579049957089",
        "ascending_node_longitude": "342.5255451495483",
        "orbital_period": "1225.976642540099",
        "perihelion_distance": "1.051951991230588",
        "perihelion_argument": "17.90200304837031",
        "aphelion_distance": "3.431568666505192",
        "perihelion_time": "2456555.022533960253",
        "mean_anomaly": "3.076639181717159",
        "mean_motion": ".293643441080669",
        "equinox": "J2000",
        "orbit_class": {
            "orbit_class_type": "AMO",
            "orbit_class_description": "Near-Earth asteroid orbits similar to that of 1221 Amor",
            "orbit_class_range": "1.017 AU < q (perihelion) < 1.3 AU"
        }
    },
    "is_sentry_object": false
}